{
  "type": "FeatureCollection",
  "features": [
    {
      "type": "Feature",
      "properties": {
        "norad_id": 30144,
        "name": "FENGYUN 1C DEB",
        "group": "fengyun-1c-debris",
        "lat": -72.74276362658767,
        "lon": 5.781609256082949,
        "alt_km": 842.3088787221131,
        "timestamp": "2025-12-08T03:50:07.271413+00:00",
        "meta_object_name": "FENGYUN 1C DEB",
        "meta_object_id": "1999-025SZ",
        "meta_epoch": "2025-12-06T23:07:17.363424",
        "meta_mean_motion": 13.91804649,
        "meta_eccentricity": 0.01259282,
        "meta_inclination": 99.0096,
        "meta_ra_of_asc_node": 333.9073,
        "meta_arg_of_pericenter": 306.6676,
        "meta_mean_anomaly": 107.2388,
        "meta_ephemeris_type": 0,
        "meta_classification_type": "U",
        "meta_norad_cat_id": 30144,
        "meta_element_set_no": 999,
        "meta_rev_at_epoch": 95760,
        "meta_bstar": 0.00088302424,
        "meta_mean_motion_dot": 1.155e-05,
        "meta_mean_motion_ddot": 0,
        "tle_line1": "1 30144U 99025SZ  25340.96339541  .00001155  00000+0  88302-3 0  9996",
        "tle_line2": "2 30144  99.0096 333.9073 0125928 306.6676 107.2388 13.91804649957607"
      },
      "geometry": {
        "type": "Point",
        "coordinates": [
          5.781609256082949,
          -72.74276362658767
        ]
      }
    },
    {
      "type": "Feature",
      "properties": {
        "norad_id": 30145,
        "name": "FENGYUN 1C DEB",
        "group": "fengyun-1c-debris",
        "lat": -5.256205552858502,
        "lon": 92.43118874791998,
        "alt_km": 914.2112382906944,
        "timestamp": "2025-12-08T03:50:07.271423+00:00",
        "meta_object_name": "FENGYUN 1C DEB",
        "meta_object_id": "1999-025TA",
        "meta_epoch": "2025-12-07T05:55:29.775360",
        "meta_mean_motion": 14.13927954,
        "meta_eccentricity": 0.00922478,
        "meta_inclination": 99.2707,
        "meta_ra_of_asc_node": 90.6238,
        "meta_arg_of_pericenter": 163.8446,
        "meta_mean_anomaly": 226.7612,
        "meta_ephemeris_type": 0,
        "meta_classification_type": "U",
        "meta_norad_cat_id": 30145,
        "meta_element_set_no": 999,
        "meta_rev_at_epoch": 96118,
        "meta_bstar": 0.0052285681,
        "meta_mean_motion_dot": 0.00010299,
        "meta_mean_motion_ddot": 0,
        "tle_line1": "1 30145U 99025TA  25341.24687240  .00010299  00000+0  52286-2 0  9991",
        "tle_line2": "2 30145  99.2707  90.6238 0092247 163.8446 226.7612 14.13927954961189"
      },
      "geometry": {
        "type": "Point",
        "coordinates": [
          92.43118874791998,
          -5.256205552858502
        ]
      }
    },
    {
      "type": "Feature",
      "properties": {
        "norad_id": 30146,
        "name": "FENGYUN 1C DEB",
        "group": "fengyun-1c-debris",
        "lat": 51.07097919412893,
        "lon": 132.3774239729875,
        "alt_km": 919.2066503539536,
        "timestamp": "2025-12-08T03:50:07.271434+00:00",
        "meta_object_name": "FENGYUN 1C DEB",
        "meta_object_id": "1999-025TB",
        "meta_epoch": "2025-12-07T05:55:03.131328",
        "meta_mean_motion": 13.86586026,
        "meta_eccentricity": 0.01787368,
        "meta_inclination": 98.0201,
        "meta_ra_of_asc_node": 141.6458,
        "meta_arg_of_pericenter": 138.0846,
        "meta_mean_anomaly": 39.6852,
        "meta_ephemeris_type": 0,
        "meta_classification_type": "U",
        "meta_norad_cat_id": 30146,
        "meta_element_set_no": 999,
        "meta_rev_at_epoch": 95341,
        "meta_bstar": 0.0011834596,
        "meta_mean_motion_dot": 1.526e-05,
        "meta_mean_motion_ddot": 0,
        "tle_line1": "1 30146U 99025TB  25341.24656402  .00001526  00000+0  11835-2 0  9996",
        "tle_line2": "2 30146  98.0201 141.6458 0178736 138.0846  39.6852 13.86586026953417"
      },
      "geometry": {
        "type": "Point",
        "coordinates": [
          132.3774239729875,
          51.07097919412893
        ]
      }
    },
    {
      "type": "Feature",
      "properties": {
        "norad_id": 30148,
        "name": "FENGYUN 1C DEB",
        "group": "fengyun-1c-debris",
        "lat": 46.0983694295352,
        "lon": 121.28828791936758,
        "alt_km": 1023.4430529567853,
        "timestamp": "2025-12-08T03:50:07.271444+00:00",
        "meta_object_name": "FENGYUN 1C DEB",
        "meta_object_id": "1999-025TD",
        "meta_epoch": "2025-12-06T22:48:14.143680",
        "meta_mean_motion": 13.88466668,
        "meta_eccentricity": 0.01348695,
        "meta_inclination": 99.5449,
        "meta_ra_of_asc_node": 130.1196,
        "meta_arg_of_pericenter": 212.0178,
        "meta_mean_anomaly": 272.3221,
        "meta_ephemeris_type": 0,
        "meta_classification_type": "U",
        "meta_norad_cat_id": 30148,
        "meta_element_set_no": 999,
        "meta_rev_at_epoch": 95436,
        "meta_bstar": 0.0014677099,
        "meta_mean_motion_dot": 1.848e-05,
        "meta_mean_motion_ddot": 0,
        "tle_line1": "1 30148U 99025TD  25340.95016370  .00001848  00000+0  14677-2 0  9993",
        "tle_line2": "2 30148  99.5449 130.1196 0134869 212.0178 272.3221 13.88466668954363"
      },
      "geometry": {
        "type": "Point",
        "coordinates": [
          121.28828791936758,
          46.0983694295352
        ]
      }
    },
    {
      "type": "Feature",
      "properties": {
        "norad_id": 30150,
        "name": "FENGYUN 1C DEB",
        "group": "fengyun-1c-debris",
        "lat": -34.1614716496461,
        "lon": -67.84435811350683,
        "alt_km": 1020.5334892386936,
        "timestamp": "2025-12-08T03:50:07.271454+00:00",
        "meta_object_name": "FENGYUN 1C DEB",
        "meta_object_id": "1999-025TF",
        "meta_epoch": "2025-12-07T07:50:26.968992",
        "meta_mean_motion": 13.86584176,
        "meta_eccentricity": 0.01466222,
        "meta_inclination": 98.9942,
        "meta_ra_of_asc_node": 117.5246,
        "meta_arg_of_pericenter": 350.8449,
        "meta_mean_anomaly": 28.5543,
        "meta_ephemeris_type": 0,
        "meta_classification_type": "U",
        "meta_norad_cat_id": 30150,
        "meta_element_set_no": 999,
        "meta_rev_at_epoch": 95383,
        "meta_bstar": 0.00076036673,
        "meta_mean_motion_dot": 9.19e-06,
        "meta_mean_motion_ddot": 0,
        "tle_line1": "1 30150U 99025TF  25341.32670103  .00000919  00000+0  76037-3 0  9995",
        "tle_line2": "2 30150  98.9942 117.5246 0146622 350.8449  28.5543 13.86584176953836"
      },
      "geometry": {
        "type": "Point",
        "coordinates": [
          -67.84435811350683,
          -34.1614716496461
        ]
      }
    },
    {
      "type": "Feature",
      "properties": {
        "norad_id": 30151,
        "name": "FENGYUN 1C DEB",
        "group": "fengyun-1c-debris",
        "lat": 53.22196781757469,
        "lon": -22.03615436753726,
        "alt_km": 1006.9933077535816,
        "timestamp": "2025-12-08T03:50:07.271464+00:00",
        "meta_object_name": "FENGYUN 1C DEB",
        "meta_object_id": "1999-025TG",
        "meta_epoch": "2025-12-07T00:05:25.321056",
        "meta_mean_motion": 13.84460117,
        "meta_eccentricity": 0.01632065,
        "meta_inclination": 99.0632,
        "meta_ra_of_asc_node": 349.1771,
        "meta_arg_of_pericenter": 294.2525,
        "meta_mean_anomaly": 119.7627,
        "meta_ephemeris_type": 0,
        "meta_classification_type": "U",
        "meta_norad_cat_id": 30151,
        "meta_element_set_no": 999,
        "meta_rev_at_epoch": 95166,
        "meta_bstar": 0.0010783477,
        "meta_mean_motion_dot": 1.296e-05,
        "meta_mean_motion_ddot": 0,
        "tle_line1": "1 30151U 99025TG  25341.00376529  .00001296  00000+0  10783-2 0  9990",
        "tle_line2": "2 30151  99.0632 349.1771 0163206 294.2525 119.7627 13.84460117951665"
      },
      "geometry": {
        "type": "Point",
        "coordinates": [
          -22.03615436753726,
          53.22196781757469
        ]
      }
    },
    {
      "type": "Feature",
      "properties": {
        "norad_id": 30152,
        "name": "FENGYUN 1C DEB",
        "group": "fengyun-1c-debris",
        "lat": -26.87620895170844,
        "lon": -155.38493423516022,
        "alt_km": 977.4580277479954,
        "timestamp": "2025-12-08T03:50:07.271474+00:00",
        "meta_object_name": "FENGYUN 1C DEB",
        "meta_object_id": "1999-025TH",
        "meta_epoch": "2025-12-06T14:08:27.842496",
        "meta_mean_motion": 13.96624624,
        "meta_eccentricity": 0.0161316,
        "meta_inclination": 99.0798,
        "meta_ra_of_asc_node": 198.4161,
        "meta_arg_of_pericenter": 102.316,
        "meta_mean_anomaly": 259.6114,
        "meta_ephemeris_type": 0,
        "meta_classification_type": "U",
        "meta_norad_cat_id": 30152,
        "meta_element_set_no": 999,
        "meta_rev_at_epoch": 95292,
        "meta_bstar": 0.0034377635,
        "meta_mean_motion_dot": 5.275e-05,
        "meta_mean_motion_ddot": 0,
        "tle_line1": "1 30152U 99025TH  25340.58921114  .00005275  00000+0  34378-2 0  9996",
        "tle_line2": "2 30152  99.0798 198.4161 0161316 102.3160 259.6114 13.96624624952924"
      },
      "geometry": {
        "type": "Point",
        "coordinates": [
          -155.38493423516022,
          -26.87620895170844
        ]
      }
    }
  ]
}